[{"OBJECT_NAME":"OPTICUBE 04","OBJECT_ID":"2016-067D","EPOCH":"2026-03-09T12:14:28.758048","MEAN_MOTION":15.09188378,"ECCENTRICITY":0.00170901,"INCLINATION":98.0811,"RA_OF_ASC_NODE":275.5525,"ARG_OF_PERICENTER":94.6311,"MEAN_ANOMALY":265.6869,"EPHEMERIS_TYPE":0,"CLASSIFICATION_TYPE":"U","NORAD_CAT_ID":41851,"ELEMENT_SET_NO":999,"REV_AT_EPOCH":51013,"BSTAR":0.00024566739,"MEAN_MOTION_DOT":3.845e-5,"MEAN_MOTION_DDOT":0},{"OBJECT_NAME":"STARLINK-1522","OBJECT_ID":"2020-055A","EPOCH":"2026-03-09T11:35:29.480640","MEAN_MOTION":15.09084623,"ECCENTRICITY":0.00016695,"INCLINATION":53.063,"RA_OF_ASC_NODE":127.4122,"ARG_OF_PERICENTER":68.2219,"MEAN_ANOMALY":291.8949,"EPHEMERIS_TYPE":0,"CLASSIFICATION_TYPE":"U","NORAD_CAT_ID":46027,"ELEMENT_SET_NO":999,"REV_AT_EPOCH":30885,"BSTAR":0.00075896096,"MEAN_MOTION_DOT":0.00011893,"MEAN_MOTION_DDOT":0}]
