OPTICUBE 04             
1 41851U 16067D   26068.51005515  .00003771  00000+0  24102-3 0  9992
2 41851  98.0811 275.5525 0017089  94.6311 265.6869 15.09188144510131
STARLINK-1522           
1 46027U 20055A   26068.48298010  .00011893  00000+0  75896-3 0  9994
2 46027  53.0630 127.4122 0001669  68.2219 291.8949 15.09084623308851
